[
  {
      "name": "أفغانستان",
      "dialCode": "+93"
  },
  {
      "name": "ألبانيا",
      "dialCode": "+355"
  },
  {
      "name": "الجزائر",
      "dialCode": "+213"
  },
  {
      "name": "أندورا",
      "dialCode": "+376"
  },
  {
      "name": "أنغولا",
      "dialCode": "+244"
  },
  {
      "name": "الأرجنتين",
      "dialCode": "+54"
  },
  {
      "name": "أرمينيا",
      "dialCode": "+374"
  },
  {
      "name": "أستراليا",
      "dialCode": "+61"
  },
  {
      "name": "النمسا",
      "dialCode": "+43"
  },
  {
      "name": "أذربيجان",
      "dialCode": "+994"
  },
  {
      "name": "الباهاماس",
      "dialCode": "+1-242"
  },
  {
      "name": "البحرين",
      "dialCode": "+973"
  },
  {
      "name": "بنغلاديش",
      "dialCode": "+880"
  },
  {
      "name": "باربادوس",
      "dialCode": "+1-246"
  },
  {
      "name": "بيلاروسيا",
      "dialCode": "+375"
  },
  {
      "name": "بلجيكا",
      "dialCode": "+32"
  },
  {
      "name": "بيليز",
      "dialCode": "+501"
  },
  {
      "name": "بنين",
      "dialCode": "+229"
  },
  {
      "name": "بوتان",
      "dialCode": "+975"
  },
  {
      "name": "بوليفيا",
      "dialCode": "+591"
  },
  {
      "name": "البوسنة والهرسك",
      "dialCode": "+387"
  },
  {
      "name": "بوتسوانا",
      "dialCode": "+267"
  },
  {
      "name": "البرازيل",
      "dialCode": "+55"
  },
  {
      "name": "بروناي",
      "dialCode": "+673"
  },
  {
      "name": "بلغاريا",
      "dialCode": "+359"
  },
  {
      "name": "بوركينا فاسو",
      "dialCode": "+226"
  },
  {
      "name": "بوروندي",
      "dialCode": "+257"
  },
  {
      "name": "كاب فيردي",
      "dialCode": "+238"
  },
  {
      "name": "كامبوديا",
      "dialCode": "+855"
  },
  {
      "name": "الكاميرون",
      "dialCode": "+237"
  },
  {
      "name": "كندا",
      "dialCode": "+1"
  },
  {
      "name": "جمهورية أفريقيا الوسطى",
      "dialCode": "+236"
  },
  {
      "name": "تشاد",
      "dialCode": "+235"
  },
  {
      "name": "شيلي",
      "dialCode": "+56"
  },
  {
      "name": "الصين",
      "dialCode": "+86"
  },
  {
      "name": "كولومبيا",
      "dialCode": "+57"
  },
  {
      "name": "جزر القمر",
      "dialCode": "+269"
  },
  {
      "name": "الكونغو",
      "dialCode": "+242"
  },
  {
      "name": "الكونغو (جمهورية الكونغو الديمقراطية)",
      "dialCode": "+243"
  },
  {
      "name": "كوستاريكا",
      "dialCode": "+506"
  },
  {
      "name": "كرواتيا",
      "dialCode": "+385"
  },
  {
      "name": "قبرص",
      "dialCode": "+357"
  },
  {
      "name": "جمهورية التشيك",
      "dialCode": "+420"
  },
  {
      "name": "الدنمارك",
      "dialCode": "+45"
  },
  {
      "name": "جيبوتي",
      "dialCode": "+253"
  },
  {
      "name": "دومينيكا",
      "dialCode": "+1-767"
  },
  {
      "name": "جمهورية الدومينيكان",
      "dialCode": "+1-809"
  },
  {
      "name": "إكوادور",
      "dialCode": "+593"
  },
  {
      "name": "مصر",
      "dialCode": "+20"
  },
  {
      "name": "السلفادور",
      "dialCode": "+503"
  },
  {
      "name": "غينيا الاستوائية",
      "dialCode": "+240"
  },
  {
      "name": "إريتريا",
      "dialCode": "+291"
  },
  {
      "name": "إستونيا",
      "dialCode": "+372"
  },
  {
      "name": "إثيوبيا",
      "dialCode": "+251"
  },
  {
      "name": "فيديو",
      "dialCode": "+500"
  },
  {
      "name": "فيجي",
      "dialCode": "+679"
  },
  {
      "name": "فنلندا",
      "dialCode": "+358"
  },
  {
      "name": "فرنسا",
      "dialCode": "+33"
  },
  {
      "name": "غابون",
      "dialCode": "+241"
  },
  {
      "name": "غامبيا",
      "dialCode": "+220"
  },
  {
      "name": "جورجيا",
      "dialCode": "+995"
  },
  {
      "name": "ألمانيا",
      "dialCode": "+49"
  },
  {
      "name": "غانا",
      "dialCode": "+233"
  },
  {
      "name": "اليونان",
      "dialCode": "+30"
  },
  {
      "name": "غرينادا",
      "dialCode": "+1-473"
  },
  {
      "name": "غواتيمالا",
      "dialCode": "+502"
  },
  {
      "name": "غينيا",
      "dialCode": "+224"
  },
  {
      "name": "غينيا بيساو",
      "dialCode": "+245"
  },
  {
      "name": "هندوراس",
      "dialCode": "+504"
  },
  {
      "name": "هنغاريا",
      "dialCode": "+36"
  },
  {
      "name": "آيسلندا",
      "dialCode": "+354"
  },
  {
      "name": "الهند",
      "dialCode": "+91"
  },
  {
      "name": "إندونيسيا",
      "dialCode": "+62"
  },
  {
      "name": "إيران",
      "dialCode": "+98"
  },
  {
      "name": "العراق",
      "dialCode": "+964"
  },
  {
      "name": "أيرلندا",
      "dialCode": "+353"
  },
  {
      "name": "إيطاليا",
      "dialCode": "+39"
  },
  {
      "name": "جامايكا",
      "dialCode": "+1-876"
  },
  {
      "name": "يابان",
      "dialCode": "+81"
  },
  {
      "name": "الأردن",
      "dialCode": "+962"
  },
  {
      "name": "كازاخستان",
      "dialCode": "+7"
  },
  {
      "name": "كينيا",
      "dialCode": "+254"
  },
  {
      "name": "كوسوفو",
      "dialCode": "+383"
  },
  {
      "name": "الكويت",
      "dialCode": "+965"
  },
  {
      "name": "قرغيزستان",
      "dialCode": "+996"
  },
  {
      "name": "لاوس",
      "dialCode": "+856"
  },
  {
      "name": "لاتفيا",
      "dialCode": "+371"
  },
  {
      "name": "لبنان",
      "dialCode": "+961"
  },
  {
      "name": "ليسوتو",
      "dialCode": "+266"
  },
  {
      "name": "ليبيريا",
      "dialCode": "+231"
  },
  {
      "name": "ليبيا",
      "dialCode": "+218"
  },
  {
      "name": "ليتوانيا",
      "dialCode": "+370"
  },
  {
      "name": "لوكسمبورغ",
      "dialCode": "+352"
  },
  {
      "name": "مدغشقر",
      "dialCode": "+261"
  },
  {
      "name": "مالاوي",
      "dialCode": "+265"
  },
  {
      "name": "ماليزيا",
      "dialCode": "+60"
  },
  {
      "name": "مالطا",
      "dialCode": "+356"
  },
  {
      "name": "ماروكو",
      "dialCode": "+212"
  },
  {
      "name": "موزمبيق",
      "dialCode": "+258"
  },
  {
      "name": "ميانمار",
      "dialCode": "+95"
  },
  {
      "name": "ناميبيا",
      "dialCode": "+264"
  },
  {
      "name": "نيبال",
      "dialCode": "+977"
  },
  {
      "name": "هولندا",
      "dialCode": "+31"
  },
  {
      "name": "نيوزيلندا",
      "dialCode": "+64"
  },
  {
      "name": "نيجيريا",
      "dialCode": "+234"
  },
  {
      "name": "كوريا الشمالية",
      "dialCode": "+850"
  },
  {
      "name": "كوريا الجنوبية",
      "dialCode": "+82"
  },
  {
      "name": "النرويج",
      "dialCode": "+47"
  },
  {
      "name": "عمان",
      "dialCode": "+968"
  },
  {
      "name": "باكستان",
      "dialCode": "+92"
  },
  {
      "name": "بالاو",
      "dialCode": "+680"
  },
  {
      "name": "فلسطين",
      "dialCode": "+970"
  },
  {
      "name": "بنما",
      "dialCode": "+507"
  },
  {
      "name": "بابوا غينيا الجديدة",
      "dialCode": "+675"
  },
  {
      "name": "باراغواي",
      "dialCode": "+595"
  },
  {
      "name": "بيرو",
      "dialCode": "+51"
  },
  {
      "name": "الفلبين",
      "dialCode": "+63"
  },
  {
      "name": "بولندا",
      "dialCode": "+48"
  },
  {
      "name": "البرتغال",
      "dialCode": "+351"
  },
  {
      "name": "قطر",
      "dialCode": "+974"
  },
  {
      "name": "رومانيا",
      "dialCode": "+40"
  },
  {
      "name": "روسيا",
      "dialCode": "+7"
  },
  {
      "name": "رواندا",
      "dialCode": "+250"
  },
  {
      "name": "سانت كيتس ونيفيس",
      "dialCode": "+1-869"
  },
  {
      "name": "سانت لوسيا",
      "dialCode": "+1-758"
  },
  {
      "name": "سانت فنسنت وجزر غرينادين",
      "dialCode": "+1-784"
  },
  {
      "name": "السعودية",
      "dialCode": "+966"
  },
  {
      "name": "سنغافورة",
      "dialCode": "+65"
  },
  {
      "name": "سلوفاكيا",
      "dialCode": "+421"
  },
  {
      "name": "سلوفينيا",
      "dialCode": "+386"
  },
  {
      "name": "جنوب إفريقيا",
      "dialCode": "+27"
  },
  {
      "name": "كوريا الجنوبية",
      "dialCode": "+82"
  },
  {
      "name": "إسبانيا",
      "dialCode": "+34"
  },
  {
      "name": "سريلانكا",
      "dialCode": "+94"
  },
  {
      "name": "السودان",
      "dialCode": "+249"
  },
  {
      "name": "سورينام",
      "dialCode": "+597"
  },
  {
      "name": "سوازيلاند",
      "dialCode": "+268"
  },
  {
      "name": "السويد",
      "dialCode": "+46"
  },
  {
      "name": "سويسرا",
      "dialCode": "+41"
  },
  {
      "name": "سوريا",
      "dialCode": "+963"
  },
  {
      "name": "طاجيكستان",
      "dialCode": "+992"
  },
  {
      "name": "تنزانيا",
      "dialCode": "+255"
  },
  {
      "name": "تايلاند",
      "dialCode": "+66"
  },
  {
      "name": "توجو",
      "dialCode": "+228"
  },
  {
      "name": "تونغا",
      "dialCode": "+676"
  },
  {
      "name": "ترينيداد وتوباغو",
      "dialCode": "+1-868"
  },
  {
      "name": "تونس",
      "dialCode": "+216"
  },
  {
      "name": "تركيا",
      "dialCode": "+90"
  },
  {
      "name": "تركمنستان",
      "dialCode": "+993"
  },
  {
      "name": "أوغندا",
      "dialCode": "+256"
  },
  {
      "name": "أوكرانيا",
      "dialCode": "+380"
  },
  {
      "name": "الإمارات العربية المتحدة",
      "dialCode": "+971"
  },
  {
      "name": "المملكة المتحدة",
      "dialCode": "+44"
  },
  {
      "name": "الولايات المتحدة الأمريكية",
      "dialCode": "+1"
  },
  {
      "name": "أورغواي",
      "dialCode": "+598"
  },
  {
      "name": "أوزبكستان",
      "dialCode": "+998"
  },
  {
      "name": "فنزويلا",
      "dialCode": "+58"
  },
  {
      "name": "فيتنام",
      "dialCode": "+84"
  },
  {
      "name": "اليمن",
      "dialCode": "+967"
  },
  {
      "name": "زامبيا",
      "dialCode": "+260"
  },
  {
      "name": "زيمبابوي",
      "dialCode": "+263"
  }
]
